[{"OBJECT_NAME":"JILIN-1 08","OBJECT_ID":"2018-008F","EPOCH":"2026-03-09T22:37:53.184288","MEAN_MOTION":15.32205976,"ECCENTRICITY":0.00081321,"INCLINATION":97.1902,"RA_OF_ASC_NODE":90.9961,"ARG_OF_PERICENTER":76.0646,"MEAN_ANOMALY":284.15,"EPHEMERIS_TYPE":0,"CLASSIFICATION_TYPE":"U","NORAD_CAT_ID":43160,"ELEMENT_SET_NO":999,"REV_AT_EPOCH":44974,"BSTAR":0.00036689195,"MEAN_MOTION_DOT":0.00011349,"MEAN_MOTION_DDOT":0},{"OBJECT_NAME":"STARLINK-34073","OBJECT_ID":"2025-137N","EPOCH":"2026-03-09T22:11:46.305600","MEAN_MOTION":15.30209045,"ECCENTRICITY":0.00019946,"INCLINATION":53.16,"RA_OF_ASC_NODE":333.9492,"ARG_OF_PERICENTER":51.2678,"MEAN_ANOMALY":308.8501,"EPHEMERIS_TYPE":0,"CLASSIFICATION_TYPE":"U","NORAD_CAT_ID":64606,"ELEMENT_SET_NO":999,"REV_AT_EPOCH":4065,"BSTAR":0.00093034824,"MEAN_MOTION_DOT":0.00027304,"MEAN_MOTION_DDOT":0}]
